IRIDIUM 154             
1 43574U 18061F   26181.55738936  .00000066  00000+0  16419-4 0  9999
2 43574  86.3950  51.2157 0002231  89.2398 270.9054 14.34218010415320
IRIDIUM 163             
1 43575U 18061G   26181.60813055  .00000057  00000+0  13244-4 0  9995
2 43575  86.3947  51.1093 0002188  84.0886 276.0559 14.34217865415303
IRIDIUM 156             
1 43576U 18061H   26181.58276043  .00000230  00000+0  75021-4 0  9997
2 43576  86.3947  51.1272 0002012  86.8509 273.2917 14.34220309415293
IRIDIUM 164             
1 43577U 18061J   26181.14512125 -.00000002  00000+0 -77148-5 0  9996
2 43577  86.3948  51.3506 0002135  89.8569 270.2871 14.34217536415274
IRIDIUM 159             
1 43578U 18061K   26181.60178816  .00000017  00000+0 -11590-5 0  9997
2 43578  86.3945  51.0960 0002101  84.0192 276.1243 14.34217543415305
IRIDIUM 180             
1 43922U 19002A   26181.46174693  .00000032  00000+0  42983-5 0  9995
2 43922  86.3976 348.0473 0002230  89.4012 270.7439 14.34217775390893
IRIDIUM 176             
1 43923U 19002B   26181.48066291  .00000781  00000+0  12008-3 0  9996
2 43923  86.6097 347.9809 0002392  88.1697 271.9794 14.72231697401202
IRIDIUM 168             
1 43924U 19002C   26181.45540010  .00000149  00000+0  46096-4 0  9993
2 43924  86.3980 348.1275 0002208  90.0724 270.0725 14.34217872390871
IRIDIUM 173             
1 43925U 19002D   26181.44271923  .00000000  00000+0 -71798-5 0  9992
2 43925  86.3973 348.0215 0002040  89.0878 271.0551 14.34217486390856
IRIDIUM 169             
1 43926U 19002E   26181.05050295  .00000306  00000+0  93556-4 0  9990
2 43926  86.4218  19.8142 0001635  86.3630 273.7755 14.38609462392071
IRIDIUM 172             
1 43927U 19002F   26181.50614521  .00000043  00000+0  82999-5 0  9997
2 43927  86.3976 348.0027 0002224  89.3826 270.7625 14.34217253390874
IRIDIUM 175             
1 43928U 19002G   26181.37632901  .00000320  00000+0  88569-4 0  9991
2 43928  86.4519 285.0079 0004117 145.8691 214.2776 14.43619890400883
IRIDIUM 171             
1 43929U 19002H   26181.48711743  .00000003  00000+0 -58681-5 0  9998
2 43929  86.3982 348.3184 0002022  94.2876 265.8551 14.34217435390860
IRIDIUM 170             
1 43930U 19002J   26181.48683857  .00000774  00000+0  11883-3 0  9999
2 43930  86.6096 347.9806 0002445  84.7375 275.4121 14.72232184401216
IRIDIUM 167             
1 43931U 19002K   26181.48077436  .00000030  00000+0  36649-5 0  9994
2 43931  86.3976 348.0358 0002030  97.9743 262.1684 14.34217750390865
IRIDIUM 181             
1 56726U 23068S   26181.14037932  .00000296  00000+0  81823-4 0  9994
2 56726  86.4486  51.3750 0002448  86.7459 273.4022 14.43312844164300
IRIDIUM 177             
1 56727U 23068T   26181.43784393  .00001059  00000+0  13646-3 0  9992
2 56727  86.1974 322.4982 0002320  89.2551 270.8936 14.80041870168329
IRIDIUM 174             
1 56728U 23068U   26181.47447874  .00000811  00000+0  12476-3 0  9992
2 56728  86.6105 348.1345 0002297  80.0693 280.0783 14.72240008167976
IRIDIUM 178             
1 56729U 23068V   26181.49441511  .00000961  00000+0  12363-3 0  9998
2 56729  86.6532  19.7977 0002496  85.9612 274.1895 14.80043164168331
IRIDIUM 179             
1 56730U 23068W   26181.55674540  .00000952  00000+0  12235-3 0  9995
2 56730  86.6765  28.7913 0002433  87.5864 272.5637 14.80060686168344
