OBJECT_NAME,OBJECT_ID,EPOCH,MEAN_MOTION,ECCENTRICITY,INCLINATION,RA_OF_ASC_NODE,ARG_OF_PERICENTER,MEAN_ANOMALY,EPHEMERIS_TYPE,CLASSIFICATION_TYPE,NORAD_CAT_ID,ELEMENT_SET_NO,REV_AT_EPOCH,BSTAR,MEAN_MOTION_DOT,MEAN_MOTION_DDOT
IRIDIUM 154,2018-061F,2026-06-30T13:22:38.440704,14.34218010,.00022319,86.3950,51.2157,89.2398,270.9054,0,U,43574,999,41532,.16418815E-4,.66E-6,0
IRIDIUM 163,2018-061G,2026-06-30T14:35:42.479520,14.34217865,.00021886,86.3947,51.1093,84.0886,276.0559,0,U,43575,999,41530,.13243804E-4,.57E-6,0
IRIDIUM 156,2018-061H,2026-06-30T13:59:10.501152,14.34220309,.0002012,86.3947,51.1272,86.8509,273.2917,0,U,43576,999,41529,.75020765E-4,.23E-5,0
IRIDIUM 164,2018-061J,2026-06-30T03:28:58.476000,14.34217536,.00021352,86.3948,51.3506,89.8569,270.2871,0,U,43577,999,41527,-.7714754E-5,-.2E-7,0
IRIDIUM 159,2018-061K,2026-06-30T14:26:34.497024,14.34217543,.0002101,86.3945,51.0960,84.0192,276.1243,0,U,43578,999,41530,-.1159049E-5,.17E-6,0
IRIDIUM 180,2019-002A,2026-06-30T11:04:54.934752,14.34217775,.00022308,86.3976,348.0473,89.4012,270.7439,0,U,43922,999,39089,.4298339E-5,.32E-6,0
IRIDIUM 176,2019-002B,2026-06-30T11:32:09.275424,14.72231697,.00023922,86.6097,347.9809,88.1697,271.9794,0,U,43923,999,40120,.12008294E-3,.781E-5,0
IRIDIUM 168,2019-002C,2026-06-30T10:55:46.568640,14.34217872,.00022087,86.3980,348.1275,90.0724,270.0725,0,U,43924,999,39087,.46096306E-4,.149E-5,0
IRIDIUM 173,2019-002D,2026-06-30T10:37:30.941472,14.34217486,.000204,86.3973,348.0215,89.0878,271.0551,0,U,43925,999,39085,-.7179782E-5,0,0
IRIDIUM 169,2019-002E,2026-06-30T01:12:43.454880,14.38609462,.00016358,86.4218,19.8142,86.3630,273.7755,0,U,43926,999,39207,.93556261E-4,.306E-5,0
IRIDIUM 172,2019-002F,2026-06-30T12:08:50.946144,14.34217253,.00022247,86.3976,348.0027,89.3826,270.7625,0,U,43927,999,39087,.8299921E-5,.43E-6,0
IRIDIUM 175,2019-002G,2026-06-30T09:01:54.826464,14.43619890,.00041179,86.4519,285.0079,145.8691,214.2776,0,U,43928,999,40088,.88569297E-4,.32E-5,0
IRIDIUM 171,2019-002H,2026-06-30T11:41:26.945952,14.34217435,.00020222,86.3982,348.3184,94.2876,265.8551,0,U,43929,999,39086,-.5868052E-5,.3E-7,0
IRIDIUM 170,2019-002J,2026-06-30T11:41:02.852448,14.72232184,.00024455,86.6096,347.9806,84.7375,275.4121,0,U,43930,999,40121,.11882859E-3,.774E-5,0
IRIDIUM 167,2019-002K,2026-06-30T11:32:18.904704,14.34217750,.00020302,86.3976,348.0358,97.9743,262.1684,0,U,43931,999,39086,.366491E-5,.3E-6,0
IRIDIUM 181,2023-068S,2026-06-30T03:22:08.773248,14.43312844,.00024482,86.4486,51.3750,86.7459,273.4022,0,U,56726,999,16430,.81822658E-4,.296E-5,0
IRIDIUM 177,2023-068T,2026-06-30T10:30:29.715552,14.80041870,.00023208,86.1974,322.4982,89.2551,270.8936,0,U,56727,999,16832,.13646173E-3,.1059E-4,0
IRIDIUM 174,2023-068U,2026-06-30T11:23:14.963136,14.72240008,.00022975,86.6105,348.1345,80.0693,280.0783,0,U,56728,999,16797,.12475673E-3,.811E-5,0
IRIDIUM 178,2023-068V,2026-06-30T11:51:57.465504,14.80043164,.00024961,86.6532,19.7977,85.9612,274.1895,0,U,56729,999,16833,.12362994E-3,.961E-5,0
IRIDIUM 179,2023-068W,2026-06-30T13:21:42.802560,14.80060686,.00024337,86.6765,28.7913,87.5864,272.5637,0,U,56730,999,16834,.12234737E-3,.952E-5,0
